CZ-10B DEB              
1 69973U 26158B   26201.10751627  .00000178  00000+0  14371-3 0  9990
2 69973  49.9836 259.7035 0005836 327.1045  32.9504 14.24891319  1400
CZ-10B R/B              
1 69974U 26158C   26201.18200634  .00000017  00000+0  37167-4 0  9997
2 69974  49.9628 256.5560 0197994 219.6485 138.9825 14.64300670  1455
STARLINK-38024          
1 69975U 26159A   26201.25004630 -.00046750  00000+0 -24438-3 0  9997
2 69975  97.2852  40.2115 0001595  98.3185 186.9543 15.80837708  2665
STARLINK-37993          
1 69976U 26159B   26201.25004630 -.00200314  00000+0 -10645-2 0  9990
2 69976  97.2848  40.2135 0001569  93.3659 196.1572 15.80909926  2662
STARLINK-37995          
1 69977U 26159C   26201.25004630 -.00073792  00000+0 -38710-3 0  9993
2 69977  97.2850  40.2152 0001184  76.7002 217.1100 15.80853289  2666
STARLINK-38057          
1 69978U 26159D   26201.25004630 -.00076723  00000+0 -40247-3 0  9999
2 69978  97.2849  40.2168 0001492  74.2030 223.8770 15.80862097  2662
STARLINK-38063          
1 69979U 26159E   26201.25004630 -.00155877  00000+0 -82528-3 0  9996
2 69979  97.2849  40.2191 0001739  88.5134 213.8522 15.80876560  2660
STARLINK-38093          
1 69980U 26159F   26201.25004630 -.00048960  00000+0 -25609-3 0  9999
2 69980  97.2850  40.2204 0001675  81.1150 225.5301 15.80831992  2660
STARLINK-38050          
1 69981U 26159G   26201.25004630 -.00248222  00000+0 -13252-2 0  9993
2 69981  97.2852  40.2226 0001389  82.9604 227.9289 15.80932260  2663
STARLINK-38065          
1 69982U 26159H   26201.25004630 -.00523651  00000+0 -28602-2 0  9991
2 69982  97.2851  40.2242 0001486  88.0589 227.0139 15.81117834  2666
STARLINK-38077          
1 69983U 26159J   26201.25004630 -.00839965  00000+0 -46975-2 0  9993
2 69983  97.2852  40.2264 0001389  89.0076 230.1710 15.81388510  2667
STARLINK-38068          
1 69984U 26159K   26201.25004630 -.01300642  00000+0 -73636-2 0  9994
2 69984  97.2851  40.2280 0001490  98.1668 225.0035 15.81802254  2665
STARLINK-38089          
1 69985U 26159L   26201.25004630 -.01512676  00000+0 -84290-2 0  9995
2 69985  97.2853  40.2292 0001661  91.7366 235.4113 15.82106686  2664
STARLINK-38073          
1 69986U 26159M   26201.25004630 -.01851296  00000+0 -10165-1 0  9999
2 69986  97.2853  40.2316 0001637  65.1902 265.8293 15.82535237  2660
STARLINK-38099          
1 69987U 26159N   26201.25004630 -.01557161  00000+0 -84974-2 0  9994
2 69987  97.2852  40.2326 0001486  88.2455 246.6386 15.82637938  2663
STARLINK-38064          
1 69988U 26159P   26201.25004630 -.01538718  00000+0 -82138-2 0  9992
2 69988  97.2854  40.2350 0001494  94.3465 248.1138 15.83069807  2668
STARLINK-38080          
1 69989U 26159Q   26201.25004630 -.01578794  00000+0 -85340-2 0  9999
2 69989  97.2852  40.2345 0001390  81.9658 256.7309 15.82881232  2660
STARLINK-38070          
1 69990U 26159R   26201.25004630 -.01612948  00000+0 -85650-2 0  9995
2 69990  97.2852  40.2358 0001346  76.3000 269.8829 15.83321896  2664
STARLINK-38042          
1 69991U 26159S   26201.25004630 -.01609036  00000+0 -84413-2 0  9996
2 69991  97.2852  40.2376 0001501  82.4269 267.3412 15.83567467  2660
STARLINK-38071          
1 69992U 26159T   26201.25004630 -.01593534  00000+0 -82587-2 0  9992
2 69992  97.2855  40.2390 0001540  76.6691 276.6556 15.83793790  2669
STARLINK-38082          
1 69993U 26159U   26201.25004630 -.01589751  00000+0 -81491-2 0  9992
2 69993  97.2855  40.2405 0001418  75.9244 280.9194 15.84018366  2663
STARLINK-38090          
1 69994U 26159V   26201.25004630 -.01577442  00000+0 -79972-2 0  9998
2 69994  97.2857  40.2420 0001354  81.0862 279.2565 15.84227083  2667
STARLINK-38084          
1 69995U 26159W   26201.25004630 -.01573755  00000+0 -79014-2 0  9999
2 69995  97.2859  40.2437 0001476  70.4531 293.4113 15.84421236  2661
STARLINK-38085          
1 69996U 26159X   26201.25004630 -.01560734  00000+0 -77474-2 0  9991
2 69996  97.2861  40.2452 0001383  77.2456 289.9756 15.84635165  2661
STARLINK-38091          
1 69997U 26159Y   26201.25004630 -.01549684  00000+0 -76162-2 0  9996
2 69997  97.2862  40.2466 0001390  74.2461 296.4078 15.84822162  2664
STARLINK-38086          
1 69998U 26159Z   26201.25004630 -.01546069  00000+0 -75230-2 0  9996
2 69998  97.2860  40.2481 0001431  73.2769 300.7138 15.85022053  2664
