OBJECT_NAME,OBJECT_ID,EPOCH,MEAN_MOTION,ECCENTRICITY,INCLINATION,RA_OF_ASC_NODE,ARG_OF_PERICENTER,MEAN_ANOMALY,EPHEMERIS_TYPE,CLASSIFICATION_TYPE,NORAD_CAT_ID,ELEMENT_SET_NO,REV_AT_EPOCH,BSTAR,MEAN_MOTION_DOT,MEAN_MOTION_DDOT
CZ-10B DEB,2026-158B,2026-07-20T02:34:49.405728,14.24891319,.00058365,49.9836,259.7035,327.1045,32.9504,0,U,69973,999,140,.14370742E-3,.178E-5,0
CZ-10B R/B,2026-158C,2026-07-20T04:22:05.347776,14.64300670,.01979942,49.9628,256.5560,219.6485,138.9825,0,U,69974,999,145,.37167019E-4,.17E-6,0
STARLINK-38024,2026-159A,2026-07-20T06:00:04.000320,15.80837708,.00015957,97.2852,40.2115,98.3185,186.9543,0,U,69975,999,266,-.24438084E-3,-.4675E-3,0
STARLINK-37993,2026-159B,2026-07-20T06:00:04.000320,15.80909926,.00015692,97.2848,40.2135,93.3659,196.1572,0,U,69976,999,266,-.10645238E-2,-.200314E-2,0
STARLINK-37995,2026-159C,2026-07-20T06:00:04.000320,15.80853289,.00011847,97.2850,40.2152,76.7002,217.1100,0,U,69977,999,266,-.38710461E-3,-.73792E-3,0
STARLINK-38057,2026-159D,2026-07-20T06:00:04.000320,15.80862097,.00014925,97.2849,40.2168,74.2030,223.8770,0,U,69978,999,266,-.40246714E-3,-.76723E-3,0
STARLINK-38063,2026-159E,2026-07-20T06:00:04.000320,15.80876560,.0001739,97.2849,40.2191,88.5134,213.8522,0,U,69979,999,266,-.82527841E-3,-.155877E-2,0
STARLINK-38093,2026-159F,2026-07-20T06:00:04.000320,15.80831992,.00016754,97.2850,40.2204,81.1150,225.5301,0,U,69980,999,266,-.2560929E-3,-.4896E-3,0
STARLINK-38050,2026-159G,2026-07-20T06:00:04.000320,15.80932260,.00013891,97.2852,40.2226,82.9604,227.9289,0,U,69981,999,266,-.13251679E-2,-.248222E-2,0
STARLINK-38065,2026-159H,2026-07-20T06:00:04.000320,15.81117834,.00014865,97.2851,40.2242,88.0589,227.0139,0,U,69982,999,266,-.28601518E-2,-.523651E-2,0
STARLINK-38077,2026-159J,2026-07-20T06:00:04.000320,15.81388510,.0001389,97.2852,40.2264,89.0076,230.1710,0,U,69983,999,266,-.46974956E-2,-.839965E-2,0
STARLINK-38068,2026-159K,2026-07-20T06:00:04.000320,15.81802254,.00014905,97.2851,40.2280,98.1668,225.0035,0,U,69984,999,266,-.73635652E-2,-.1300642E-1,0
STARLINK-38089,2026-159L,2026-07-20T06:00:04.000320,15.82106686,.00016619,97.2853,40.2292,91.7366,235.4113,0,U,69985,999,266,-.84290411E-2,-.1512676E-1,0
STARLINK-38073,2026-159M,2026-07-20T06:00:04.000320,15.82535237,.00016375,97.2853,40.2316,65.1902,265.8293,0,U,69986,999,266,-.10165414E-1,-.1851296E-1,0
STARLINK-38099,2026-159N,2026-07-20T06:00:04.000320,15.82637938,.00014863,97.2852,40.2326,88.2455,246.6386,0,U,69987,999,266,-.84973595E-2,-.1557161E-1,0
STARLINK-38064,2026-159P,2026-07-20T06:00:04.000320,15.83069807,.00014946,97.2854,40.2350,94.3465,248.1138,0,U,69988,999,266,-.82137641E-2,-.1538718E-1,0
STARLINK-38080,2026-159Q,2026-07-20T06:00:04.000320,15.82881232,.00013905,97.2852,40.2345,81.9658,256.7309,0,U,69989,999,266,-.85340216E-2,-.1578794E-1,0
STARLINK-38070,2026-159R,2026-07-20T06:00:04.000320,15.83321896,.00013463,97.2852,40.2358,76.3000,269.8829,0,U,69990,999,266,-.85650239E-2,-.1612948E-1,0
STARLINK-38042,2026-159S,2026-07-20T06:00:04.000320,15.83567467,.00015016,97.2852,40.2376,82.4269,267.3412,0,U,69991,999,266,-.84413426E-2,-.1609036E-1,0
STARLINK-38071,2026-159T,2026-07-20T06:00:04.000320,15.83793790,.00015407,97.2855,40.2390,76.6691,276.6556,0,U,69992,999,266,-.82586983E-2,-.1593534E-1,0
STARLINK-38082,2026-159U,2026-07-20T06:00:04.000320,15.84018366,.00014185,97.2855,40.2405,75.9244,280.9194,0,U,69993,999,266,-.81490729E-2,-.1589751E-1,0
STARLINK-38090,2026-159V,2026-07-20T06:00:04.000320,15.84227083,.00013545,97.2857,40.2420,81.0862,279.2565,0,U,69994,999,266,-.79971724E-2,-.1577442E-1,0
STARLINK-38084,2026-159W,2026-07-20T06:00:04.000320,15.84421236,.00014761,97.2859,40.2437,70.4531,293.4113,0,U,69995,999,266,-.79014088E-2,-.1573755E-1,0
STARLINK-38085,2026-159X,2026-07-20T06:00:04.000320,15.84635165,.00013838,97.2861,40.2452,77.2456,289.9756,0,U,69996,999,266,-.77474244E-2,-.1560734E-1,0
STARLINK-38091,2026-159Y,2026-07-20T06:00:04.000320,15.84822162,.00013906,97.2862,40.2466,74.2461,296.4078,0,U,69997,999,266,-.76162092E-2,-.1549684E-1,0
STARLINK-38086,2026-159Z,2026-07-20T06:00:04.000320,15.85022053,.00014314,97.2860,40.2481,73.2769,300.7138,0,U,69998,999,266,-.75229771E-2,-.1546069E-1,0
